{"type": "FeatureCollection", "features": [ {"type": "Feature", "properties": {"norad_id": 36011, "name": "IRIDIUM 33 DEB", "group": "iridium-33-debris", "lat": 68.62414619515033, "lon": 40.33895808065714, "alt_km": 752.3492477651662, "timestamp": "2025-12-23T05:02:12.415652+00:00", "meta": {"OBJECT_NAME": "IRIDIUM 33 DEB", "OBJECT_ID": "1997-051US", "EPOCH": "2025-12-20T20:53:54.330144", "MEAN_MOTION": 14.41351593, "ECCENTRICITY": 0.0018529, "INCLINATION": 86.3402, "RA_OF_ASC_NODE": 31.9321, "ARG_OF_PERICENTER": 188.5725, "MEAN_ANOMALY": 351.0197, "EPHEMERIS_TYPE": 0, "CLASSIFICATION_TYPE": "U", "NORAD_CAT_ID": 36011, "ELEMENT_SET_NO": 999, "REV_AT_EPOCH": 64657, "BSTAR": 0.00031216, "MEAN_MOTION_DOT": 1.032e-05, "MEAN_MOTION_DDOT": 0}, "tle": {"line1": "1 36011U 97051US  25354.87076771  .00001032  00000+0  31216-3 0  9996", "line2": "2 36011  86.3402  31.9321 0018529 188.5725 351.0197 14.41351593646576"}}, "geometry": {"type": "Point", "coordinates": [40.33895808065714, 68.62414619515033]}}, {"type": "Feature", "properties": {"norad_id": 36012, "name": "IRIDIUM 33 DEB", "group": "iridium-33-debris", "lat": -59.076960456686514, "lon": 129.2748101473302, "alt_km": 685.0308002968386, "timestamp": "2025-12-23T05:02:12.415662+00:00", "meta": {"OBJECT_NAME": "IRIDIUM 33 DEB", "OBJECT_ID": "1997-051UT", "EPOCH": "2025-12-22T19:26:44.257344", "MEAN_MOTION": 14.19248629, "ECCENTRICITY": 0.02110734, "INCLINATION": 86.4402, "RA_OF_ASC_NODE": 303.4712, "ARG_OF_PERICENTER": 230.7871, "MEAN_ANOMALY": 127.4412, "EPHEMERIS_TYPE": 0, "CLASSIFICATION_TYPE": "U", "NORAD_CAT_ID": 36012, "ELEMENT_SET_NO": 999, "REV_AT_EPOCH": 65627, "BSTAR": 0.0042404896, "MEAN_MOTION_DOT": 0.00011128, "MEAN_MOTION_DDOT": 0}, "tle": {"line1": "1 36012U 97051UT  25356.81023446  .00011128  00000+0  42405-2 0  9992", "line2": "2 36012  86.4402 303.4712 0211073 230.7871 127.4412 14.19248629656273"}}, "geometry": {"type": "Point", "coordinates": [129.2748101473302, -59.076960456686514]}}, {"type": "Feature", "properties": {"norad_id": 36028, "name": "IRIDIUM 33 DEB", "group": "iridium-33-debris", "lat": -43.8331441623923, "lon": -61.768956608779504, "alt_km": 580.1860906141956, "timestamp": "2025-12-23T05:02:12.415672+00:00", "meta": {"OBJECT_NAME": "IRIDIUM 33 DEB", "OBJECT_ID": "1997-051VK", "EPOCH": "2025-12-19T03:17:05.091936", "MEAN_MOTION": 14.95591145, "ECCENTRICITY": 0.00208389, "INCLINATION": 86.3218, "RA_OF_ASC_NODE": 303.6882, "ARG_OF_PERICENTER": 33.6007, "MEAN_ANOMALY": 326.6539, "EPHEMERIS_TYPE": 0, "CLASSIFICATION_TYPE": "U", "NORAD_CAT_ID": 36028, "ELEMENT_SET_NO": 999, "REV_AT_EPOCH": 87220, "BSTAR": 0.001783846, "MEAN_MOTION_DOT": 0.00019939, "MEAN_MOTION_DDOT": 0}, "tle": {"line1": "1 36028U 97051VK  25353.13686449  .00019939  00000+0  17838-2 0  9999", "line2": "2 36028  86.3218 303.6882 0020838  33.6007 326.6539 14.95591145872206"}}, "geometry": {"type": "Point", "coordinates": [-61.768956608779504, -43.8331441623923]}}, {"type": "Feature", "properties": {"norad_id": 36080, "name": "IRIDIUM 33 DEB", "group": "iridium-33-debris", "lat": 46.13845285834199, "lon": 179.58511005905973, "alt_km": 719.4869302625393, "timestamp": "2025-12-23T05:02:12.415683+00:00", "meta": {"OBJECT_NAME": "IRIDIUM 33 DEB", "OBJECT_ID": "1997-051VM", "EPOCH": "2025-12-19T07:27:26.572608", "MEAN_MOTION": 14.4663152, "ECCENTRICITY": 0.0018893, "INCLINATION": 86.3193, "RA_OF_ASC_NODE": 5.1242, "ARG_OF_PERICENTER": 135.9522, "MEAN_ANOMALY": 224.319, "EPHEMERIS_TYPE": 0, "CLASSIFICATION_TYPE": "U", "NORAD_CAT_ID": 36080, "ELEMENT_SET_NO": 999, "REV_AT_EPOCH": 47509, "BSTAR": 0.00042458, "MEAN_MOTION_DOT": 1.555e-05, "MEAN_MOTION_DDOT": 0}, "tle": {"line1": "1 36080U 97051VM  25353.31072422  .00001555  00000+0  42458-3 0  9999", "line2": "2 36080  86.3193   5.1242 0018893 135.9522 224.3190 14.46631520475097"}}, "geometry": {"type": "Point", "coordinates": [179.58511005905973, 46.13845285834199]}}, {"type": "Feature", "properties": {"norad_id": 36083, "name": "IRIDIUM 33 DEB", "group": "iridium-33-debris", "lat": 81.73053167001252, "lon": -176.4655661804571, "alt_km": 740.4111365064873, "timestamp": "2025-12-23T05:02:12.415693+00:00", "meta": {"OBJECT_NAME": "IRIDIUM 33 DEB", "OBJECT_ID": "1997-051VQ", "EPOCH": "2025-12-21T09:19:18.145344", "MEAN_MOTION": 14.43234813, "ECCENTRICITY": 0.00261912, "INCLINATION": 86.3424, "RA_OF_ASC_NODE": 30.4295, "ARG_OF_PERICENTER": 193.4541, "MEAN_ANOMALY": 166.5965, "EPHEMERIS_TYPE": 0, "CLASSIFICATION_TYPE": "U", "NORAD_CAT_ID": 36083, "ELEMENT_SET_NO": 999, "REV_AT_EPOCH": 85574, "BSTAR": 0.00039895396, "MEAN_MOTION_DOT": 1.367e-05, "MEAN_MOTION_DDOT": 0}, "tle": {"line1": "1 36083U 97051VQ  25355.38840446  .00001367  00000+0  39895-3 0  9992", "line2": "2 36083  86.3424  30.4295 0026191 193.4541 166.5965 14.43234813855748"}}, "geometry": {"type": "Point", "coordinates": [-176.4655661804571, 81.73053167001252]}}, {"type": "Feature", "properties": {"norad_id": 36390, "name": "IRIDIUM 33 DEB", "group": "iridium-33-debris", "lat": -18.01291785533772, "lon": -66.61536437683878, "alt_km": 672.6628006970732, "timestamp": "2025-12-23T05:02:12.415703+00:00", "meta": {"OBJECT_NAME": "IRIDIUM 33 DEB", "OBJECT_ID": "1997-051VU", "EPOCH": "2025-12-22T03:02:43.455840", "MEAN_MOTION": 14.73721752, "ECCENTRICITY": 0.00320639, "INCLINATION": 86.292, "RA_OF_ASC_NODE": 295.0892, "ARG_OF_PERICENTER": 130.5813, "MEAN_ANOMALY": 229.8203, "EPHEMERIS_TYPE": 0, "CLASSIFICATION_TYPE": "U", "NORAD_CAT_ID": 36390, "ELEMENT_SET_NO": 999, "REV_AT_EPOCH": 66400, "BSTAR": 0.0010853374, "MEAN_MOTION_DOT": 7.17e-05, "MEAN_MOTION_DDOT": 0}, "tle": {"line1": "1 36390U 97051VU  25356.12689185  .00007170  00000+0  10853-2 0  9997", "line2": "2 36390  86.2920 295.0892 0032063 130.5813 229.8203 14.73721752664001"}}, "geometry": {"type": "Point", "coordinates": [-66.61536437683878, -18.01291785533772]}}, {"type": "Feature", "properties": {"norad_id": 36483, "name": "IRIDIUM 33 DEB", "group": "iridium-33-debris", "lat": -0.9950791454902949, "lon": 47.94468257259871, "alt_km": 743.4847890956707, "timestamp": "2025-12-23T05:02:12.415713+00:00", "meta": {"OBJECT_NAME": "IRIDIUM 33 DEB", "OBJECT_ID": "1997-051VZ", "EPOCH": "2025-12-21T21:28:56.984736", "MEAN_MOTION": 14.45839576, "ECCENTRICITY": 0.00113894, "INCLINATION": 86.3785, "RA_OF_ASC_NODE": 48.5705, "ARG_OF_PERICENTER": 100.875, "MEAN_ANOMALY": 259.3734, "EPHEMERIS_TYPE": 0, "CLASSIFICATION_TYPE": "U", "NORAD_CAT_ID": 36483, "ELEMENT_SET_NO": 999, "REV_AT_EPOCH": 65278, "BSTAR": 0.00044994046, "MEAN_MOTION_DOT": 1.617e-05, "MEAN_MOTION_DDOT": 0}, "tle": {"line1": "1 36483U 97051VZ  25355.89510399  .00001617  00000+0  44994-3 0  9997", "line2": "2 36483  86.3785  48.5705 0011389 100.8750 259.3734 14.45839576652788"}}, "geometry": {"type": "Point", "coordinates": [47.94468257259871, -0.9950791454902949]}}, {"type": "Feature", "properties": {"norad_id": 36490, "name": "IRIDIUM 33 DEB", "group": "iridium-33-debris", "lat": -37.144937886059125, "lon": 2.980068722611235, "alt_km": 647.5538913977725, "timestamp": "2025-12-23T05:02:12.415722+00:00", "meta": {"OBJECT_NAME": "IRIDIUM 33 DEB", "OBJECT_ID": "1997-051WG", "EPOCH": "2025-12-20T18:38:39.578208", "MEAN_MOTION": 14.76343752, "ECCENTRICITY": 0.00052455, "INCLINATION": 86.365, "RA_OF_ASC_NODE": 6.8378, "ARG_OF_PERICENTER": 65.8032, "MEAN_ANOMALY": 294.3734, "EPHEMERIS_TYPE": 0, "CLASSIFICATION_TYPE": "U", "NORAD_CAT_ID": 36490, "ELEMENT_SET_NO": 999, "REV_AT_EPOCH": 86603, "BSTAR": 0.00097886565, "MEAN_MOTION_DOT": 6.818e-05, "MEAN_MOTION_DDOT": 0}, "tle": {"line1": "1 36490U 97051WG  25354.77684697  .00006818  00000+0  97887-3 0  9991", "line2": "2 36490  86.3650   6.8378 0005245  65.8032 294.3734 14.76343752866031"}}, "geometry": {"type": "Point", "coordinates": [2.980068722611235, -37.144937886059125]}}, {"type": "Feature", "properties": {"norad_id": 36493, "name": "IRIDIUM 33 DEB", "group": "iridium-33-debris", "lat": -11.639370649099744, "lon": -172.22079220532828, "alt_km": 684.9837442537064, "timestamp": "2025-12-23T05:02:12.415732+00:00", "meta": {"OBJECT_NAME": "IRIDIUM 33 DEB", "OBJECT_ID": "1997-051WK", "EPOCH": "2025-12-22T18:19:53.039712", "MEAN_MOTION": 14.65351358, "ECCENTRICITY": 0.00090696, "INCLINATION": 86.3568, "RA_OF_ASC_NODE": 7.2254, "ARG_OF_PERICENTER": 328.804, "MEAN_ANOMALY": 31.2633, "EPHEMERIS_TYPE": 0, "CLASSIFICATION_TYPE": "U", "NORAD_CAT_ID": 36493, "ELEMENT_SET_NO": 999, "REV_AT_EPOCH": 74665, "BSTAR": 0.0012995973, "MEAN_MOTION_DOT": 7.043e-05, "MEAN_MOTION_DDOT": 0}, "tle": {"line1": "1 36493U 97051WK  25356.76380833  .00007043  00000+0  12996-2 0  9998", "line2": "2 36493  86.3568   7.2254 0009069 328.8040  31.2633 14.65351358746659"}}, "geometry": {"type": "Point", "coordinates": [-172.22079220532828, -11.639370649099744]}}, {"type": "Feature", "properties": {"norad_id": 37548, "name": "IRIDIUM 33 DEB", "group": "iridium-33-debris", "lat": -33.64483158059318, "lon": -138.75303589052953, "alt_km": 718.2114636449451, "timestamp": "2025-12-23T05:02:12.415742+00:00", "meta": {"OBJECT_NAME": "IRIDIUM 33 DEB", "OBJECT_ID": "1997-051XH", "EPOCH": "2025-12-15T20:39:30.861504", "MEAN_MOTION": 14.51326297, "ECCENTRICITY": 0.00258157, "INCLINATION": 86.3522, "RA_OF_ASC_NODE": 42.0105, "ARG_OF_PERICENTER": 178.4192, "MEAN_ANOMALY": 181.71, "EPHEMERIS_TYPE": 0, "CLASSIFICATION_TYPE": "U", "NORAD_CAT_ID": 37548, "ELEMENT_SET_NO": 999, "REV_AT_EPOCH": 65577, "BSTAR": 0.00067405053, "MEAN_MOTION_DOT": 2.715e-05, "MEAN_MOTION_DDOT": 0}, "tle": {"line1": "1 37548U 97051XH  25349.86077386  .00002715  00000+0  67405-3 0  9996", "line2": "2 37548  86.3522  42.0105 0025815 178.4192 181.7100 14.51326297655778"}}, "geometry": {"type": "Point", "coordinates": [-138.75303589052953, -33.64483158059318]}}]}